{
  "type": "FeatureCollection",
  "features": [
    {
      "type": "Feature",
      "properties": {
        "norad_id": 66576,
        "name": "STARLINK-35814",
        "group": "last-30-days",
        "lat": 42.975041410763595,
        "lon": 167.95766664039144,
        "alt_km": 407.2450963220699,
        "timestamp": "2025-12-19T22:41:51.094654+00:00",
        "meta_object_name": "STARLINK-35814",
        "meta_object_id": "2025-268V",
        "meta_epoch": "2025-12-19T16:08:06.851328",
        "meta_mean_motion": 15.51663838,
        "meta_eccentricity": 0.0003769,
        "meta_inclination": 42.9999,
        "meta_ra_of_asc_node": 80.5649,
        "meta_arg_of_pericenter": 247.0261,
        "meta_mean_anomaly": 113.0202,
        "meta_ephemeris_type": 0,
        "meta_classification_type": "U",
        "meta_norad_cat_id": 66576,
        "meta_element_set_no": 999,
        "meta_rev_at_epoch": 570,
        "meta_bstar": 0.001954,
        "meta_mean_motion_dot": 0.00120686,
        "meta_mean_motion_ddot": 0,
        "tle_line1": "1 66576U 25268V   25353.67230152  .00120686  00000+0  19540-2 0  9990",
        "tle_line2": "2 66576  42.9999  80.5649 0003769 247.0261 113.0202 15.51663838  5700"
      },
      "geometry": {
        "type": "Point",
        "coordinates": [
          167.95766664039144,
          42.975041410763595
        ]
      }
    },
    {
      "type": "Feature",
      "properties": {
        "norad_id": 66577,
        "name": "STARLINK-35815",
        "group": "last-30-days",
        "lat": 42.98001569108944,
        "lon": 169.40176316720752,
        "alt_km": 406.7310570680156,
        "timestamp": "2025-12-19T22:41:51.094666+00:00",
        "meta_object_name": "STARLINK-35815",
        "meta_object_id": "2025-268W",
        "meta_epoch": "2025-12-19T16:07:37.596288",
        "meta_mean_motion": 15.50777469,
        "meta_eccentricity": 0.0001864,
        "meta_inclination": 43.0013,
        "meta_ra_of_asc_node": 80.5656,
        "meta_arg_of_pericenter": 139.1198,
        "meta_mean_anomaly": 220.9802,
        "meta_ephemeris_type": 0,
        "meta_classification_type": "U",
        "meta_norad_cat_id": 66577,
        "meta_element_set_no": 999,
        "meta_rev_at_epoch": 570,
        "meta_bstar": 0.0010498,
        "meta_mean_motion_dot": 0.00062177,
        "meta_mean_motion_ddot": 0,
        "tle_line1": "1 66577U 25268W   25353.67196292  .00062177  00000+0  10498-2 0  9990",
        "tle_line2": "2 66577  43.0013  80.5656 0001864 139.1198 220.9802 15.50777469  5701"
      },
      "geometry": {
        "type": "Point",
        "coordinates": [
          169.40176316720752,
          42.98001569108944
        ]
      }
    },
    {
      "type": "Feature",
      "properties": {
        "norad_id": 66578,
        "name": "STARLINK-35743",
        "group": "last-30-days",
        "lat": 42.94577969731452,
        "lon": 171.65511676109304,
        "alt_km": 407.75641403302143,
        "timestamp": "2025-12-19T22:41:51.094677+00:00",
        "meta_object_name": "STARLINK-35743",
        "meta_object_id": "2025-268X",
        "meta_epoch": "2025-12-19T13:01:43.293216",
        "meta_mean_motion": 15.50763067,
        "meta_eccentricity": 6.51e-05,
        "meta_inclination": 42.9979,
        "meta_ra_of_asc_node": 81.316,
        "meta_arg_of_pericenter": 284.5171,
        "meta_mean_anomaly": 75.5617,
        "meta_ephemeris_type": 0,
        "meta_classification_type": "U",
        "meta_norad_cat_id": 66578,
        "meta_element_set_no": 999,
        "meta_rev_at_epoch": 568,
        "meta_bstar": 0.0024134,
        "meta_mean_motion_dot": 0.0014484,
        "meta_mean_motion_ddot": 0,
        "tle_line1": "1 66578U 25268X   25353.54286219  .00144840  00000+0  24134-2 0  9996",
        "tle_line2": "2 66578  42.9979  81.3160 0000651 284.5171  75.5617 15.50763067  5683"
      },
      "geometry": {
        "type": "Point",
        "coordinates": [
          171.65511676109304,
          42.94577969731452
        ]
      }
    },
    {
      "type": "Feature",
      "properties": {
        "norad_id": 66579,
        "name": "STARLINK-35868",
        "group": "last-30-days",
        "lat": 42.84751637518778,
        "lon": 174.4655674941268,
        "alt_km": 405.3829030254137,
        "timestamp": "2025-12-19T22:41:51.094688+00:00",
        "meta_object_name": "STARLINK-35868",
        "meta_object_id": "2025-268Y",
        "meta_epoch": "2025-12-19T14:33:56.916864",
        "meta_mean_motion": 15.50836614,
        "meta_eccentricity": 0.0004756,
        "meta_inclination": 43.0005,
        "meta_ra_of_asc_node": 80.9344,
        "meta_arg_of_pericenter": 146.5071,
        "meta_mean_anomaly": 213.609,
        "meta_ephemeris_type": 0,
        "meta_classification_type": "U",
        "meta_norad_cat_id": 66579,
        "meta_element_set_no": 999,
        "meta_rev_at_epoch": 569,
        "meta_bstar": 0.0020668,
        "meta_mean_motion_dot": 0.00124015,
        "meta_mean_motion_ddot": 0,
        "tle_line1": "1 66579U 25268Y   25353.60690876  .00124015  00000+0  20668-2 0  9992",
        "tle_line2": "2 66579  43.0005  80.9344 0004756 146.5071 213.6090 15.50836614  5691"
      },
      "geometry": {
        "type": "Point",
        "coordinates": [
          174.4655674941268,
          42.84751637518778
        ]
      }
    },
    {
      "type": "Feature",
      "properties": {
        "norad_id": 66580,
        "name": "STARLINK-35872",
        "group": "last-30-days",
        "lat": 42.68319867624859,
        "lon": 177.1754389227987,
        "alt_km": 406.4611086611694,
        "timestamp": "2025-12-19T22:41:51.094698+00:00",
        "meta_object_name": "STARLINK-35872",
        "meta_object_id": "2025-268Z",
        "meta_epoch": "2025-12-19T14:33:26.953344",
        "meta_mean_motion": 15.50873267,
        "meta_eccentricity": 0.0002511,
        "meta_inclination": 42.9993,
        "meta_ra_of_asc_node": 80.9317,
        "meta_arg_of_pericenter": 162.1716,
        "meta_mean_anomaly": 197.9233,
        "meta_ephemeris_type": 0,
        "meta_classification_type": "U",
        "meta_norad_cat_id": 66580,
        "meta_element_set_no": 999,
        "meta_rev_at_epoch": 569,
        "meta_bstar": 0.0027444,
        "meta_mean_motion_dot": 0.00165853,
        "meta_mean_motion_ddot": 0,
        "tle_line1": "1 66580U 25268Z   25353.60656196  .00165853  00000+0  27444-2 0  9995",
        "tle_line2": "2 66580  42.9993  80.9317 0002511 162.1716 197.9233 15.50873267  5692"
      },
      "geometry": {
        "type": "Point",
        "coordinates": [
          177.1754389227987,
          42.68319867624859
        ]
      }
    },
    {
      "type": "Feature",
      "properties": {
        "norad_id": 66581,
        "name": "STARLINK-35744",
        "group": "last-30-days",
        "lat": 42.465345729793405,
        "lon": 179.75796264329344,
        "alt_km": 406.3052583612416,
        "timestamp": "2025-12-19T22:41:51.094708+00:00",
        "meta_object_name": "STARLINK-35744",
        "meta_object_id": "2025-268AA",
        "meta_epoch": "2025-12-19T14:32:57.535872",
        "meta_mean_motion": 15.50868619,
        "meta_eccentricity": 0.0002007,
        "meta_inclination": 42.9976,
        "meta_ra_of_asc_node": 80.9302,
        "meta_arg_of_pericenter": 149.3188,
        "meta_mean_anomaly": 210.779,
        "meta_ephemeris_type": 0,
        "meta_classification_type": "U",
        "meta_norad_cat_id": 66581,
        "meta_element_set_no": 999,
        "meta_rev_at_epoch": 569,
        "meta_bstar": 0.002953,
        "meta_mean_motion_dot": 0.00178751,
        "meta_mean_motion_ddot": 0,
        "tle_line1": "1 66581U 25268AA  25353.60622148  .00178751  00000+0  29530-2 0  9995",
        "tle_line2": "2 66581  42.9976  80.9302 0002007 149.3188 210.7790 15.50868619  5695"
      },
      "geometry": {
        "type": "Point",
        "coordinates": [
          179.75796264329344,
          42.465345729793405
        ]
      }
    },
    {
      "type": "Feature",
      "properties": {
        "norad_id": 66582,
        "name": "STARLINK-35746",
        "group": "last-30-days",
        "lat": 42.19443283084403,
        "lon": -177.69573832657193,
        "alt_km": 405.8965148444222,
        "timestamp": "2025-12-19T22:41:51.094720+00:00",
        "meta_object_name": "STARLINK-35746",
        "meta_object_id": "2025-268AB",
        "meta_epoch": "2025-12-19T14:32:27.681216",
        "meta_mean_motion": 15.50863129,
        "meta_eccentricity": 0.0003514,
        "meta_inclination": 42.9991,
        "meta_ra_of_asc_node": 80.9247,
        "meta_arg_of_pericenter": 153.85,
        "meta_mean_anomaly": 206.2539,
        "meta_ephemeris_type": 0,
        "meta_classification_type": "U",
        "meta_norad_cat_id": 66582,
        "meta_element_set_no": 999,
        "meta_rev_at_epoch": 569,
        "meta_bstar": 0.0024947,
        "meta_mean_motion_dot": 0.00150392,
        "meta_mean_motion_ddot": 0,
        "tle_line1": "1 66582U 25268AB  25353.60587594  .00150392  00000+0  24947-2 0  9999",
        "tle_line2": "2 66582  42.9991  80.9247 0003514 153.8500 206.2539 15.50863129  5695"
      },
      "geometry": {
        "type": "Point",
        "coordinates": [
          -177.69573832657193,
          42.19443283084403
        ]
      }
    }
  ]
}